[{"OBJECT_NAME":"NOAA 18","OBJECT_ID":"2005-018A","EPOCH":"2026-04-07T15:07:44.676480","MEAN_MOTION":14.13717005,"ECCENTRICITY":0.00140442,"INCLINATION":98.8121,"RA_OF_ASC_NODE":178.3271,"ARG_OF_PERICENTER":356.1202,"MEAN_ANOMALY":3.9859,"EPHEMERIS_TYPE":0,"CLASSIFICATION_TYPE":"U","NORAD_CAT_ID":28654,"ELEMENT_SET_NO":999,"REV_AT_EPOCH":7634,"BSTAR":4.536894e-5,"MEAN_MOTION_DOT":4.2e-7,"MEAN_MOTION_DDOT":0},{"OBJECT_NAME":"NOAA 19","OBJECT_ID":"2009-005A","EPOCH":"2026-04-07T19:53:53.627424","MEAN_MOTION":14.13462766,"ECCENTRICITY":0.001304,"INCLINATION":98.9556,"RA_OF_ASC_NODE":168.6416,"ARG_OF_PERICENTER":226.0484,"MEAN_ANOMALY":133.9613,"EPHEMERIS_TYPE":0,"CLASSIFICATION_TYPE":"U","NORAD_CAT_ID":33591,"ELEMENT_SET_NO":999,"REV_AT_EPOCH":88454,"BSTAR":4.4807e-5,"MEAN_MOTION_DOT":3.9e-7,"MEAN_MOTION_DDOT":0},{"OBJECT_NAME":"SUOMI NPP","OBJECT_ID":"2011-061A","EPOCH":"2026-04-07T20:29:52.785024","MEAN_MOTION":14.1950195,"ECCENTRICITY":0.0002154,"INCLINATION":98.7905,"RA_OF_ASC_NODE":39.2303,"ARG_OF_PERICENTER":137.5945,"MEAN_ANOMALY":222.5398,"EPHEMERIS_TYPE":0,"CLASSIFICATION_TYPE":"U","NORAD_CAT_ID":37849,"ELEMENT_SET_NO":999,"REV_AT_EPOCH":74846,"BSTAR":7.6925e-5,"MEAN_MOTION_DOT":1.18e-6,"MEAN_MOTION_DDOT":0},{"OBJECT_NAME":"NOAA 20 (JPSS-1)","OBJECT_ID":"2017-073A","EPOCH":"2026-04-07T19:08:43.598112","MEAN_MOTION":14.19544051,"ECCENTRICITY":0.0002093,"INCLINATION":98.7725,"RA_OF_ASC_NODE":37.9017,"ARG_OF_PERICENTER":97.9083,"MEAN_ANOMALY":262.233,"EPHEMERIS_TYPE":0,"CLASSIFICATION_TYPE":"U","NORAD_CAT_ID":43013,"ELEMENT_SET_NO":999,"REV_AT_EPOCH":43448,"BSTAR":6.9066e-5,"MEAN_MOTION_DOT":1.02e-6,"MEAN_MOTION_DDOT":0}]
