NOAA 18                 
1 28654U 05018A   26097.63037820  .00000042  00000+0  45369-4 0  9998
2 28654  98.8121 178.3271 0014044 356.1202   3.9859 14.13717005 76340
NOAA 19                 
1 33591U 09005A   26097.82909291  .00000039  00000+0  44807-4 0  9997
2 33591  98.9556 168.6416 0013040 226.0484 133.9613 14.13462766884546
SUOMI NPP               
1 37849U 11061A   26097.85408316  .00000118  00000+0  76925-4 0  9991
2 37849  98.7905  39.2303 0002154 137.5945 222.5398 14.19501950748462
NOAA 20 (JPSS-1)        
1 43013U 17073A   26097.79772683  .00000102  00000+0  69066-4 0  9995
2 43013  98.7725  37.9017 0002093  97.9083 262.2330 14.19544051434483
